{
    "links": {
        "self": "http://www.neowsapp.com/rest/v1/neo/54076931?api_key=iIulBulltgU6a56xZRHN4H3l9WmuAYTsLGpBGhQ2"
    },
    "id": "54076931",
    "neo_reference_id": "54076931",
    "name": "(2020 UN5)",
    "designation": "2020 UN5",
    "nasa_jpl_url": "http://ssd.jpl.nasa.gov/sbdb.cgi?sstr=54076931",
    "absolute_magnitude_h": 26.855,
    "estimated_diameter": {
        "kilometers": {
            "estimated_diameter_min": 0.0113124058,
            "estimated_diameter_max": 0.0252953084
        },
        "meters": {
            "estimated_diameter_min": 11.3124058211,
            "estimated_diameter_max": 25.295308405
        },
        "miles": {
            "estimated_diameter_min": 0.0070292009,
            "estimated_diameter_max": 0.0157177711
        },
        "feet": {
            "estimated_diameter_min": 37.1141935141,
            "estimated_diameter_max": 82.9898596276
        }
    },
    "is_potentially_hazardous_asteroid": false,
    "close_approach_data": [
        {
            "close_approach_date": "2020-10-30",
            "close_approach_date_full": "2020-Oct-30 19:41",
            "epoch_date_close_approach": 1604086860000,
            "relative_velocity": {
                "kilometers_per_second": "9.1076998628",
                "kilometers_per_hour": "32787.7195060272",
                "miles_per_hour": "20373.0138230645"
            },
            "miss_distance": {
                "astronomical": "0.0293644202",
                "lunar": "11.4227594578",
                "kilometers": "4392854.715704974",
                "miles": "2729593.3474136812"
            },
            "orbiting_body": "Earth"
        }
    ],
    "orbital_data": {
        "orbit_id": "3",
        "orbit_determination_date": "2020-10-28 06:42:33",
        "first_observation_date": "2020-10-23",
        "last_observation_date": "2020-10-28",
        "data_arc_in_days": 5,
        "observations_used": 25,
        "orbit_uncertainty": "8",
        "minimum_orbit_intersection": ".0141881",
        "jupiter_tisserand_invariant": "3.733",
        "epoch_osculation": "2459146.5",
        "eccentricity": ".5068265890171441",
        "semi_major_axis": "1.939929293546459",
        "inclination": "3.8565477284431",
        "ascending_node_longitude": "32.14249383190194",
        "orbital_period": "986.909384023652",
        "perihelion_distance": ".9567215467638692",
        "perihelion_argument": "39.54716927935353",
        "aphelion_distance": "2.923137040329049",
        "perihelion_time": "2459179.726588877651",
        "mean_anomaly": "347.8797666841643",
        "mean_motion": ".364775131159734",
        "equinox": "J2000",
        "orbit_class": {
            "orbit_class_type": "APO",
            "orbit_class_description": "Near-Earth asteroid orbits which cross the Earth’s orbit similar to that of 1862 Apollo",
            "orbit_class_range": "a (semi-major axis) > 1.0 AU; q (perihelion) < 1.017 AU"
        }
    },
    "is_sentry_object": false
}